CUTE-1 (CO-55)          
1 27844U 03031E   22068.82178123  .00000210  00000+0  11409-3 0  9992
2 27844  98.6818  78.0023 0010471  36.3140 323.8746 14.22391544969740
CUBESAT XI-IV (CO-57)   
1 27848U 03031J   22068.47257074  .00000176  00000+0  99339-4 0  9990
2 27848  98.6867  78.1963 0010576  50.2730 309.9378 14.21956744969472
CUBESAT XI-V            
1 28895U 05043F   22068.81697680  .00000819  00000+0  16445-3 0  9997
2 28895  98.0891 201.8415 0017953  95.2468 265.0784 14.64126941873063
CUTE-1.7+APD II (CO-65) 
1 32785U 08021C   22068.46042510  .00001757  00000+0  19163-3 0  9998
2 32785  97.6465  42.5761 0012130 198.6271 161.4505 14.89137587751604
AAUSAT-II               
1 32788U 08021F   22068.50817259  .00003981  00000+0  35494-3 0  9992
2 32788  97.5279  57.4732 0013372  98.5402 261.7336 14.96470301753481
DELFI-C3 (DO-64)        
1 32789U 08021G   22068.64869378  .00007626  00000+0  45732-3 0  9993
2 32789  97.3513  98.6903 0009559 314.6161  45.4289 15.11189722756944
SEEDS II (CO-66)        
1 32791U 08021J   22068.47105721  .00002541  00000+0  25564-3 0  9994
2 32791  97.6024  48.1969 0013510 156.8041 203.3790 14.92002452752281
SWISSCUBE               
1 35932U 09051B   22068.57777863  .00000531  00000+0  12978-3 0  9993
2 35932  98.5813 281.6617 0007628   3.0796 357.0447 14.56710830661555
BEESAT-1                
1 35933U 09051C   22068.53461528  .00000454  00000+0  11244-3 0  9997
2 35933  98.5758 283.3105 0006084  18.1757 341.9656 14.56746820661624
ITUPSAT1                
1 35935U 09051E   22068.83499821  .00000409  00000+0  10423-3 0  9997
2 35935  98.5860 283.7001 0008388  16.7514 343.3958 14.55867765661412
TISAT 1                 
1 36799U 10035E   22068.83418943  .00002126  00000+0  21382-3 0  9990
2 36799  98.1929 275.3282 0013049  65.5262 294.7315 14.92318490633101
M-CUBED & EXP-1 PRIME   
1 37855U 11061F   22068.45009964  .00007176  00000+0  33307-3 0  9991
2 37855 101.7094 134.9754 0160124   1.4033 358.7599 15.09932798566130
AEROCUBE 4.5A           
1 38767U 12048K   22068.47229165  .00005680  00000+0  40312-3 0  9991
2 38767  64.6659  64.6122 0177244 289.7566  68.4507 14.93904504135848
AEROCUBE 4.5B           
1 38768U 12048L   22068.58938269  .00006640  00000+0  42971-3 0  9996
2 38768  64.6685  20.9908 0166483 284.9532  73.3203 14.98247196136186
STRAND-1                
1 39090U 13009E   22068.53946568  .00000122  00000+0  57519-4 0  9993
2 39090  98.4110 269.2410 0008589 202.4645 157.6166 14.35250980473062
BRITE-AUSTRIA           
1 39091U 13009F   22068.80168981  .00000104  00000+0  51131-4 0  9993
2 39091  98.4120 268.6539 0009866 209.6615 150.4013 14.35234861473145
SOMP                    
1 39134U 13015E   22068.29280234  .00014184  00000+0  55816-3 0  9993
2 39134  64.8644  29.8338 0031100 296.7162  63.0785 15.25422045491569
BEESAT-3                
1 39135U 13015F   22068.43201701  .00010126  00000+0  44971-3 0  9994
2 39135  64.8674  63.2499 0032327 305.5801  54.2315 15.21525333490889
BEESAT-2                
1 39136U 13015G   22068.35509377  .00008441  00000+0  39007-3 0  9997
2 39136  64.8752  71.0864 0010916 282.0005  77.9899 15.20713940490684
NEE-01 PEGASO           
1 39151U 13018B   22068.77443384  .00001163  00000+0  15813-3 0  9991
2 39151  97.9833 174.8586 0016226 214.7314 145.2840 14.80631449478933
ESTCUBE 1               
1 39161U 13021C   22068.75841818  .00000752  00000+0  12546-3 0  9991
2 39161  97.9157 148.5807 0010261  28.2356 331.9406 14.72712252474799
POPACS 1                
1 39268U 13055D   22068.18386856  .00013483  00000+0  34834-3 0  9998
2 39268  81.0006 347.0936 0585125 142.5797 221.7686 14.47229006438785
POPACS 2                
1 39269U 13055E   22068.23497524  .00008949  00000+0  25237-3 0  9998
2 39269  81.0142  40.9403 0653993 282.2433  70.6292 14.30948789435849
POPACS 3                
1 39270U 13055F   22068.75433222  .00009692  00000+0  29628-3 0  9996
2 39270  81.0126  71.5379 0695506   9.1267 352.1808 14.20404569435171
ZACUBE-1 (TSHEPISOSAT)  
1 39417U 13066B   22068.51735981  .00001910  00000+0  24072-3 0  9995
2 39417  97.6260  44.6200 0058664  13.9258 346.3557 14.81912191448320
WNISAT-1                
1 39423U 13066H   22068.67730278  .00000412  00000+0  90035-4 0  9992
2 39423  97.7673 317.4284 0175938  89.4086 272.7269 14.53357276439957
TRITON-1                
1 39427U 13066M   22068.80369363  .00001009  00000+0  16640-3 0  9996
2 39427  97.8053   9.0119 0111537 222.6556 136.5950 14.68595778444343
DELFI-N3XT              
1 39428U 13066N   22068.38874032  .00001855  00000+0  29605-3 0  9998
2 39428  97.8071   7.1417 0117183 237.3968 121.5883 14.68586790443844
GOMX-1                  
1 39430U 13066Q   22068.80909843  .00001417  00000+0  26176-3 0  9991
2 39430  97.8154 341.6899 0150282 359.5513   0.5550 14.59904686441752
CUBEBUG-2 (LO-74)       
1 39440U 13066AA  22068.45033215  .00001543  00000+0  21642-3 0  9997
2 39440  97.7143  30.3103 0080885  95.7365 265.3075 14.76601198445528
NEE-02 KRYSAOR          
1 39441U 13066AB  22068.43805178  .00001062  00000+0  15508-3 0  9991
2 39441  97.7250  27.5349 0082474 108.3809 252.6392 14.75442426445288
FUNCUBE-1 (AO-73)       
1 39444U 13066AE  22068.46887869  .00002635  00000+0  32218-3 0  9998
2 39444  97.6149  46.9693 0057313   3.0168 357.1380 14.82905398446703
UWE-3                   
1 39446U 13066AG  22068.44161174  .00001939  00000+0  25752-3 0  9993
2 39446  97.6734  36.9262 0070587  56.1116 304.6784 14.79152126445675
AEROCUBE 5A             
1 39465U 13072D   22068.55681561  .00025134  00000+0  16320-2 0  9993
2 39465 120.4909 301.3178 0220204 171.0211 189.4875 14.90221541134706
AEROCUBE 5B             
1 39466U 13072E   22068.54482447  .00036575  00000+0  17941-2 0  9996
2 39466 120.4631  17.7066 0174587 186.3783 173.5051 15.05467754135636
BRITE-CA1 (TORONTO)     
1 40020U 14033L   22068.69593099  .00000711  00000+0  12877-3 0  9991
2 40020  97.7643 232.8127 0086224 221.0106 138.4595 14.66882315413145
DUCHIFAT-1              
1 40021U 14033M   22068.78000993  .00003085  00000+0  30922-3 0  9996
2 40021  98.0020  17.3007 0013117  16.4054 343.7586 14.92065509419831
NANOSATC-BR1            
1 40024U 14033Q   22068.57812877  .00002953  00000+0  30381-3 0  9990
2 40024  97.9764  10.9720 0012682  23.5458 336.6337 14.91044736419092
QB50P1                  
1 40025U 14033R   22068.54672057  .00001988  00000+0  21215-3 0  9995
2 40025  97.9529   5.2599 0013142  32.3545 327.8476 14.89941685419395
QB50P2                  
1 40032U 14033Y   22068.80403343  .00001937  00000+0  20950-3 0  9991
2 40032  97.9320   1.2596 0012499  29.6115 330.5807 14.89416621419308
PERSEUS-M2              
1 40037U 14033AD  22068.78309555  .00000846  00000+0  10080-3 0  9994
2 40037  97.8955 351.5932 0015459  48.8758 311.3789 14.86880113418815
PERSEUS-M1              
1 40039U 14033AF  22068.34800415  .00000855  00000+0  10267-3 0  9996
2 40039  97.8869 349.1006 0015296  49.2160 311.0380 14.86495139418136
POLYITAN-1              
1 40042U 14033AJ  22068.55869981  .00002744  00000+0  29099-3 0  9998
2 40042  97.9631   6.3379 0015194  23.4878 336.7030 14.89854462418777
TIGRISAT                
1 40043U 14033AK  22068.49876134  .00001000  00000+0  15221-3 0  9996
2 40043  97.6586 263.1452 0060697 119.6082 241.1194 14.74776858414897
AEROCUBE 6A             
1 40045U 14033AM  22068.56132259  .00001000  00000+0  14789-3 0  9997
2 40045  97.6738 271.6121 0058325 108.1201 252.6373 14.76144494415283
AEROCUBE 6B             
1 40046U 14033AN  22068.82563834  .00001682  00000+0  24317-3 0  9998
2 40046  97.6643 270.4030 0057583 105.7378 255.0194 14.76294095415469
UKUBE-1                 
1 40074U 14037F   22068.91011502  .00001577  00000+0  19208-3 0  9999
2 40074  98.3972 304.3187 0003171 250.2201 109.8666 14.84972506415298
BRITE-PL2 (HEWELIUSZ)   
1 40119U 14049B   22068.55254267  .00000886  00000+0  11042-3 0  9999
2 40119  97.8810 165.2514 0016764 205.0600 154.9802 14.84876836409187
FIREBIRD 4              
1 40378U 15003C   22068.52512643  .00010189  00000+0  33465-3 0  9999
2 40378  99.1139 271.5883 0108495   2.8619 357.3211 15.26263424393162
GRIFEX                  
1 40379U 15003D   22068.78109290  .00007317  00000+0  27508-3 0  9998
2 40379  99.1193 258.8190 0121783  41.0351 319.9962 15.20828209392477
CP10 (EXOCUBE)          
1 40380U 15003E   22068.75140171  .00006263  00000+0  25136-3 0  9994
2 40380  99.1241 252.0766 0128481  63.4082 298.0245 15.18120228392035
TIANWANG 1A (TW-1A)     
1 40928U 15051D   22068.86095084  .00029035  00000+0  48005-3 0  9991
2 40928  97.0517  92.8920 0010199  46.5099  78.6691 15.52121440362752
EXACTVIEW 9             
1 40936U 15052G   22067.29544545  .00001617  00000+0  13557-3 0  9998
2 40936   6.0030 175.4062 0010129 167.4109 192.6272 14.76915210348234
AEROCUBE 5C             
1 40965U 15058B   22068.33635228  .00001150  00000+0  13928-3 0  9995
2 40965  64.7778  35.0827 0204098 231.3294 126.9398 14.75208774134198
AEROCUBE 7              
1 40966U 15058C   22068.36917310  .00001439  00000+0  16845-3 0  9995
2 40966  64.7779  32.4186 0202440 230.9981 127.2946 14.75666990134197
ATHENOXAT 1             
1 41168U 15077C   22068.79111854  .00012855  00000+0  57455-3 0  9993
2 41168  14.9826 107.5281 0010381 278.3062 228.2790 15.18141802345123
GALASSIA                
1 41170U 15077E   22068.40055709  .00010184  00000+0  44943-3 0  9991
2 41170  14.9888 100.8125 0011306 303.7583  56.1661 15.18042108344983
VELOX-II                
1 41171U 15077F   22068.50485684  .00007509  00000+0  36326-3 0  9995
2 41171  14.9901 168.4222 0008345 155.1510 204.9213 15.14079810344438
HORYU-4                 
1 41340U 16012D   22068.68527966  .00002778  00000+0  19714-3 0  9997
2 41340  31.0042 275.9238 0013823 288.6847  71.2288 15.02572611332703
